{
  "type": "FeatureCollection",
  "features": [
    {
      "type": "Feature",
      "properties": {
        "norad_id": 55164,
        "name": "ONEWEB-0623",
        "group": "active",
        "lat": NaN,
        "lon": NaN,
        "alt_km": NaN,
        "timestamp": "2025-12-01T03:08:33.368656+00:00",
        "meta": {
          "OBJECT_NAME": "ONEWEB-0623",
          "OBJECT_ID": "2023-004AA",
          "EPOCH": "2025-11-30T17:58:18.496416",
          "MEAN_MOTION": 13.17650765,
          "ECCENTRICITY": 0.0001397,
          "INCLINATION": 87.9122,
          "RA_OF_ASC_NODE": 45.3453,
          "ARG_OF_PERICENTER": 127.9397,
          "MEAN_ANOMALY": 232.1861,
          "EPHEMERIS_TYPE": 0,
          "CLASSIFICATION_TYPE": "U",
          "NORAD_CAT_ID": 55164,
          "ELEMENT_SET_NO": 999,
          "REV_AT_EPOCH": 14145,
          "BSTAR": -0.00029075,
          "MEAN_MOTION_DOT": -1e-06,
          "MEAN_MOTION_DDOT": 0
        }
      },
      "geometry": {
        "type": "Point",
        "coordinates": [
          NaN,
          NaN
        ]
      }
    },
    {
      "type": "Feature",
      "properties": {
        "norad_id": 55165,
        "name": "ONEWEB-0624",
        "group": "active",
        "lat": NaN,
        "lon": NaN,
        "alt_km": NaN,
        "timestamp": "2025-12-01T03:08:33.368661+00:00",
        "meta": {
          "OBJECT_NAME": "ONEWEB-0624",
          "OBJECT_ID": "2023-004AB",
          "EPOCH": "2025-11-30T14:14:55.199616",
          "MEAN_MOTION": 13.12921112,
          "ECCENTRICITY": 0.000156,
          "INCLINATION": 87.8946,
          "RA_OF_ASC_NODE": 30.078,
          "ARG_OF_PERICENTER": 108.6395,
          "MEAN_ANOMALY": 251.4903,
          "EPHEMERIS_TYPE": 0,
          "CLASSIFICATION_TYPE": "U",
          "NORAD_CAT_ID": 55165,
          "ELEMENT_SET_NO": 999,
          "REV_AT_EPOCH": 14201,
          "BSTAR": 0.00026128,
          "MEAN_MOTION_DOT": 1.07e-06,
          "MEAN_MOTION_DDOT": 0
        }
      },
      "geometry": {
        "type": "Point",
        "coordinates": [
          NaN,
          NaN
        ]
      }
    },
    {
      "type": "Feature",
      "properties": {
        "norad_id": 55166,
        "name": "ONEWEB-0625",
        "group": "active",
        "lat": NaN,
        "lon": NaN,
        "alt_km": NaN,
        "timestamp": "2025-12-01T03:08:33.368666+00:00",
        "meta": {
          "OBJECT_NAME": "ONEWEB-0625",
          "OBJECT_ID": "2023-004AC",
          "EPOCH": "2025-11-30T17:43:42.978432",
          "MEAN_MOTION": 13.17651316,
          "ECCENTRICITY": 0.0001917,
          "INCLINATION": 87.9121,
          "RA_OF_ASC_NODE": 45.3424,
          "ARG_OF_PERICENTER": 102.2404,
          "MEAN_ANOMALY": 257.8942,
          "EPHEMERIS_TYPE": 0,
          "CLASSIFICATION_TYPE": "U",
          "NORAD_CAT_ID": 55166,
          "ELEMENT_SET_NO": 999,
          "REV_AT_EPOCH": 14144,
          "BSTAR": -0.00027393,
          "MEAN_MOTION_DOT": -9.3e-07,
          "MEAN_MOTION_DDOT": 0
        }
      },
      "geometry": {
        "type": "Point",
        "coordinates": [
          NaN,
          NaN
        ]
      }
    },
    {
      "type": "Feature",
      "properties": {
        "norad_id": 55167,
        "name": "ONEWEB-0626",
        "group": "active",
        "lat": NaN,
        "lon": NaN,
        "alt_km": NaN,
        "timestamp": "2025-12-01T03:08:33.368673+00:00",
        "meta": {
          "OBJECT_NAME": "ONEWEB-0626",
          "OBJECT_ID": "2023-004AD",
          "EPOCH": "2025-11-30T17:29:08.460096",
          "MEAN_MOTION": 13.17647817,
          "ECCENTRICITY": 0.0001731,
          "INCLINATION": 87.9122,
          "RA_OF_ASC_NODE": 45.3443,
          "ARG_OF_PERICENTER": 84.3807,
          "MEAN_ANOMALY": 275.7522,
          "EPHEMERIS_TYPE": 0,
          "CLASSIFICATION_TYPE": "U",
          "NORAD_CAT_ID": 55167,
          "ELEMENT_SET_NO": 999,
          "REV_AT_EPOCH": 14144,
          "BSTAR": -7.4931e-06,
          "MEAN_MOTION_DOT": 1e-07,
          "MEAN_MOTION_DDOT": 0
        }
      },
      "geometry": {
        "type": "Point",
        "coordinates": [
          NaN,
          NaN
        ]
      }
    },
    {
      "type": "Feature",
      "properties": {
        "norad_id": 55168,
        "name": "ONEWEB-0627",
        "group": "active",
        "lat": NaN,
        "lon": NaN,
        "alt_km": NaN,
        "timestamp": "2025-12-01T03:08:33.368678+00:00",
        "meta": {
          "OBJECT_NAME": "ONEWEB-0627",
          "OBJECT_ID": "2023-004AE",
          "EPOCH": "2025-11-30T17:12:07.836768",
          "MEAN_MOTION": 13.17648529,
          "ECCENTRICITY": 0.000131,
          "INCLINATION": 87.9121,
          "RA_OF_ASC_NODE": 45.3471,
          "ARG_OF_PERICENTER": 116.6691,
          "MEAN_ANOMALY": 243.4575,
          "EPHEMERIS_TYPE": 0,
          "CLASSIFICATION_TYPE": "U",
          "NORAD_CAT_ID": 55168,
          "ELEMENT_SET_NO": 999,
          "REV_AT_EPOCH": 14144,
          "BSTAR": -3.2385e-05,
          "MEAN_MOTION_DOT": 0,
          "MEAN_MOTION_DDOT": 0
        }
      },
      "geometry": {
        "type": "Point",
        "coordinates": [
          NaN,
          NaN
        ]
      }
    },
    {
      "type": "Feature",
      "properties": {
        "norad_id": 55169,
        "name": "ONEWEB-0628",
        "group": "active",
        "lat": NaN,
        "lon": NaN,
        "alt_km": NaN,
        "timestamp": "2025-12-01T03:08:33.368683+00:00",
        "meta": {
          "OBJECT_NAME": "ONEWEB-0628",
          "OBJECT_ID": "2023-004AF",
          "EPOCH": "2025-11-30T15:41:24.626400",
          "MEAN_MOTION": 13.12441305,
          "ECCENTRICITY": 0.000162,
          "INCLINATION": 87.8955,
          "RA_OF_ASC_NODE": 30.0896,
          "ARG_OF_PERICENTER": 124.2733,
          "MEAN_ANOMALY": 235.8549,
          "EPHEMERIS_TYPE": 0,
          "CLASSIFICATION_TYPE": "U",
          "NORAD_CAT_ID": 55169,
          "ELEMENT_SET_NO": 999,
          "REV_AT_EPOCH": 14199,
          "BSTAR": -0.0011292,
          "MEAN_MOTION_DOT": -3.93e-06,
          "MEAN_MOTION_DDOT": 0
        }
      },
      "geometry": {
        "type": "Point",
        "coordinates": [
          NaN,
          NaN
        ]
      }
    },
    {
      "type": "Feature",
      "properties": {
        "norad_id": 55170,
        "name": "ONEWEB-0629",
        "group": "active",
        "lat": NaN,
        "lon": NaN,
        "alt_km": NaN,
        "timestamp": "2025-12-01T03:08:33.368688+00:00",
        "meta": {
          "OBJECT_NAME": "ONEWEB-0629",
          "OBJECT_ID": "2023-004AG",
          "EPOCH": "2025-11-30T18:26:13.538400",
          "MEAN_MOTION": 13.17647486,
          "ECCENTRICITY": 0.0001945,
          "INCLINATION": 87.9119,
          "RA_OF_ASC_NODE": 45.3337,
          "ARG_OF_PERICENTER": 111.2523,
          "MEAN_ANOMALY": 248.8817,
          "EPHEMERIS_TYPE": 0,
          "CLASSIFICATION_TYPE": "U",
          "NORAD_CAT_ID": 55170,
          "ELEMENT_SET_NO": 999,
          "REV_AT_EPOCH": 14145,
          "BSTAR": -0.00012379,
          "MEAN_MOTION_DOT": -3.5e-07,
          "MEAN_MOTION_DDOT": 0
        }
      },
      "geometry": {
        "type": "Point",
        "coordinates": [
          NaN,
          NaN
        ]
      }
    },
    {
      "type": "Feature",
      "properties": {
        "norad_id": 55171,
        "name": "ONEWEB-0631",
        "group": "active",
        "lat": NaN,
        "lon": NaN,
        "alt_km": NaN,
        "timestamp": "2025-12-01T03:08:33.368693+00:00",
        "meta": {
          "OBJECT_NAME": "ONEWEB-0631",
          "OBJECT_ID": "2023-004AH",
          "EPOCH": "2025-11-30T20:03:36.652896",
          "MEAN_MOTION": 13.18685334,
          "ECCENTRICITY": 0.0001474,
          "INCLINATION": 87.9197,
          "RA_OF_ASC_NODE": 14.8285,
          "ARG_OF_PERICENTER": 79.9873,
          "MEAN_ANOMALY": 280.1425,
          "EPHEMERIS_TYPE": 0,
          "CLASSIFICATION_TYPE": "U",
          "NORAD_CAT_ID": 55171,
          "ELEMENT_SET_NO": 999,
          "REV_AT_EPOCH": 14353,
          "BSTAR": 0.0002119,
          "MEAN_MOTION_DOT": 9.6e-07,
          "MEAN_MOTION_DDOT": 0
        }
      },
      "geometry": {
        "type": "Point",
        "coordinates": [
          NaN,
          NaN
        ]
      }
    }
  ]
}